{"type": "FeatureCollection", "features": [ {"type": "Feature", "properties": {"norad_id": 43108, "name": "BEIDOU-3 M8 (C28)", "group": "gnss", "lat": 14.382909555948368, "lon": -40.39080546664595, "alt_km": 21529.60676403791, "timestamp": "2025-12-04T09:47:37.764903+00:00", "meta": {"OBJECT_NAME": "BEIDOU-3 M8 (C28)", "OBJECT_ID": "2018-003B", "EPOCH": "2025-12-03T07:23:02.934240", "MEAN_MOTION": 1.8623075, "ECCENTRICITY": 0.0004799, "INCLINATION": 54.498, "RA_OF_ASC_NODE": 309.1259, "ARG_OF_PERICENTER": 273.9928, "MEAN_ANOMALY": 85.9385, "EPHEMERIS_TYPE": 0, "CLASSIFICATION_TYPE": "U", "NORAD_CAT_ID": 43108, "ELEMENT_SET_NO": 999, "REV_AT_EPOCH": 5371, "BSTAR": 0, "MEAN_MOTION_DOT": -6.7e-07, "MEAN_MOTION_DDOT": 0}, "tle": {"line1": "1 43108U 18003B   25337.30767285 -.00000067  00000+0  00000+0 0  9998", "line2": "2 43108  54.4980 309.1259 0004799 273.9928  85.9385  1.86230750 53712"}}, "geometry": {"type": "Point", "coordinates": [-40.39080546664595, 14.382909555948368]}}, {"type": "Feature", "properties": {"norad_id": 43207, "name": "BEIDOU-3 M4 (C22)", "group": "gnss", "lat": 55.578270143249924, "lon": 144.54674699659637, "alt_km": 21517.133049854325, "timestamp": "2025-12-04T09:47:37.764914+00:00", "meta": {"OBJECT_NAME": "BEIDOU-3 M4 (C22)", "OBJECT_ID": "2018-018A", "EPOCH": "2025-12-02T03:19:43.852800", "MEAN_MOTION": 1.86230706, "ECCENTRICITY": 0.00040749, "INCLINATION": 56.4768, "RA_OF_ASC_NODE": 69.6557, "ARG_OF_PERICENTER": 15.1369, "MEAN_ANOMALY": 344.8773, "EPHEMERIS_TYPE": 0, "CLASSIFICATION_TYPE": "U", "NORAD_CAT_ID": 43207, "ELEMENT_SET_NO": 999, "REV_AT_EPOCH": 5307, "BSTAR": 0, "MEAN_MOTION_DOT": -4.5e-07, "MEAN_MOTION_DDOT": 0}, "tle": {"line1": "1 43207U 18018A   25336.13870200 -.00000045  00000+0  00000+0 0  9992", "line2": "2 43207  56.4768  69.6557 0004074  15.1369 344.8773  1.86230706 53076"}}, "geometry": {"type": "Point", "coordinates": [144.54674699659637, 55.578270143249924]}}, {"type": "Feature", "properties": {"norad_id": 43208, "name": "BEIDOU-3 M3 (C21)", "group": "gnss", "lat": 30.0586035871638, "lon": 92.10757700306182, "alt_km": 21521.156956109433, "timestamp": "2025-12-04T09:47:37.764927+00:00", "meta": {"OBJECT_NAME": "BEIDOU-3 M3 (C21)", "OBJECT_ID": "2018-018B", "EPOCH": "2025-12-03T06:41:57.693408", "MEAN_MOTION": 1.86230862, "ECCENTRICITY": 0.0006282, "INCLINATION": 56.4772, "RA_OF_ASC_NODE": 69.6218, "ARG_OF_PERICENTER": 317.5873, "MEAN_ANOMALY": 42.3668, "EPHEMERIS_TYPE": 0, "CLASSIFICATION_TYPE": "U", "NORAD_CAT_ID": 43208, "ELEMENT_SET_NO": 999, "REV_AT_EPOCH": 5309, "BSTAR": 0, "MEAN_MOTION_DOT": -4.9e-07, "MEAN_MOTION_DDOT": 0}, "tle": {"line1": "1 43208U 18018B   25337.27913997 -.00000049  00000+0  00000+0 0  9994", "line2": "2 43208  56.4772  69.6218 0006282 317.5873  42.3668  1.86230862 53096"}}, "geometry": {"type": "Point", "coordinates": [92.10757700306182, 30.0586035871638]}}, {"type": "Feature", "properties": {"norad_id": 43245, "name": "BEIDOU-3 M9 (C29)", "group": "gnss", "lat": -50.63181322486208, "lon": -172.38855165178407, "alt_km": 21529.218992800677, "timestamp": "2025-12-04T09:47:37.764938+00:00", "meta": {"OBJECT_NAME": "BEIDOU-3 M9 (C29)", "OBJECT_ID": "2018-029A", "EPOCH": "2025-12-01T08:20:14.784576", "MEAN_MOTION": 1.86227904, "ECCENTRICITY": 0.00017985, "INCLINATION": 54.3765, "RA_OF_ASC_NODE": 306.8658, "ARG_OF_PERICENTER": 272.1738, "MEAN_ANOMALY": 87.7976, "EPHEMERIS_TYPE": 0, "CLASSIFICATION_TYPE": "U", "NORAD_CAT_ID": 43245, "ELEMENT_SET_NO": 999, "REV_AT_EPOCH": 5221, "BSTAR": 0, "MEAN_MOTION_DOT": -5.8e-07, "MEAN_MOTION_DDOT": 0}, "tle": {"line1": "1 43245U 18029A   25335.34739334 -.00000058  00000+0  00000+0 0  9994", "line2": "2 43245  54.3765 306.8658 0001798 272.1738  87.7976  1.86227904 52214"}}, "geometry": {"type": "Point", "coordinates": [-172.38855165178407, -50.63181322486208]}}, {"type": "Feature", "properties": {"norad_id": 43246, "name": "BEIDOU-3 M10 (C30)", "group": "gnss", "lat": -47.25730307988252, "lon": -104.10011100527791, "alt_km": 21528.72588353356, "timestamp": "2025-12-04T09:47:37.764951+00:00", "meta": {"OBJECT_NAME": "BEIDOU-3 M10 (C30)", "OBJECT_ID": "2018-029B", "EPOCH": "2025-12-02T08:33:31.669920", "MEAN_MOTION": 1.86228858, "ECCENTRICITY": 0.00039642, "INCLINATION": 54.3728, "RA_OF_ASC_NODE": 306.8573, "ARG_OF_PERICENTER": 359.3093, "MEAN_ANOMALY": 0.678, "EPHEMERIS_TYPE": 0, "CLASSIFICATION_TYPE": "U", "NORAD_CAT_ID": 43246, "ELEMENT_SET_NO": 999, "REV_AT_EPOCH": 5221, "BSTAR": 0, "MEAN_MOTION_DOT": -6.2e-07, "MEAN_MOTION_DDOT": 0}, "tle": {"line1": "1 43246U 18029B   25336.35661655 -.00000062  00000+0  00000+0 0  9992", "line2": "2 43246  54.3728 306.8573 0003964 359.3093   0.6780  1.86228858 52215"}}, "geometry": {"type": "Point", "coordinates": [-104.10011100527791, -47.25730307988252]}}, {"type": "Feature", "properties": {"norad_id": 43286, "name": "IRNSS-1I", "group": "gnss", "lat": -8.869061823036693, "lon": -86.57329551947892, "alt_km": 35697.501369350895, "timestamp": "2025-12-04T09:47:37.764963+00:00", "meta": {"OBJECT_NAME": "IRNSS-1I", "OBJECT_ID": "2018-035A", "EPOCH": "2025-12-02T20:53:40.545024", "MEAN_MOTION": 1.00271018, "ECCENTRICITY": 0.00223103, "INCLINATION": 29.1259, "RA_OF_ASC_NODE": 77.2526, "ARG_OF_PERICENTER": 180.6668, "MEAN_ANOMALY": 182.6057, "EPHEMERIS_TYPE": 0, "CLASSIFICATION_TYPE": "U", "NORAD_CAT_ID": 43286, "ELEMENT_SET_NO": 999, "REV_AT_EPOCH": 2811, "BSTAR": 0, "MEAN_MOTION_DOT": 8.7e-07, "MEAN_MOTION_DDOT": 0}, "tle": {"line1": "1 43286U 18035A   25336.87060816  .00000087  00000+0  00000+0 0  9998", "line2": "2 43286  29.1259  77.2526 0022310 180.6668 182.6057  1.00271018 28116"}}, "geometry": {"type": "Point", "coordinates": [-86.57329551947892, -8.869061823036693]}}, {"type": "Feature", "properties": {"norad_id": 43508, "name": "COSMOS 2527 (756)", "group": "gnss", "lat": 45.16367918461463, "lon": 107.7062286124712, "alt_km": 19146.606074980442, "timestamp": "2025-12-04T09:47:37.764974+00:00", "meta": {"OBJECT_NAME": "COSMOS 2527 (756)", "OBJECT_ID": "2018-053A", "EPOCH": "2025-12-03T09:39:54.898272", "MEAN_MOTION": 2.13102029, "ECCENTRICITY": 0.00086478, "INCLINATION": 65.4675, "RA_OF_ASC_NODE": 80.4438, "ARG_OF_PERICENTER": 224.1252, "MEAN_ANOMALY": 135.8021, "EPHEMERIS_TYPE": 0, "CLASSIFICATION_TYPE": "U", "NORAD_CAT_ID": 43508, "ELEMENT_SET_NO": 999, "REV_AT_EPOCH": 5810, "BSTAR": 0, "MEAN_MOTION_DOT": -2.2e-07, "MEAN_MOTION_DDOT": 0}, "tle": {"line1": "1 43508U 18053A   25337.40271873 -.00000022  00000+0  00000+0 0  9992", "line2": "2 43508  65.4675  80.4438 0008647 224.1252 135.8021  2.13102029 58109"}}, "geometry": {"type": "Point", "coordinates": [107.7062286124712, 45.16367918461463]}}, {"type": "Feature", "properties": {"norad_id": 43539, "name": "BEIDOU-2 IGSO-7 (C16)", "group": "gnss", "lat": 11.448296782786167, "lon": -23.378454804887827, "alt_km": 35647.481931972405, "timestamp": "2025-12-04T09:47:37.764986+00:00", "meta": {"OBJECT_NAME": "BEIDOU-2 IGSO-7 (C16)", "OBJECT_ID": "2018-057A", "EPOCH": "2025-12-03T10:51:14.895936", "MEAN_MOTION": 1.00259551, "ECCENTRICITY": 0.00924699, "INCLINATION": 55.1728, "RA_OF_ASC_NODE": 164.7534, "ARG_OF_PERICENTER": 235.1642, "MEAN_ANOMALY": 306.8485, "EPHEMERIS_TYPE": 0, "CLASSIFICATION_TYPE": "U", "NORAD_CAT_ID": 43539, "ELEMENT_SET_NO": 999, "REV_AT_EPOCH": 2716, "BSTAR": 0, "MEAN_MOTION_DOT": -2.5e-07, "MEAN_MOTION_DDOT": 0}, "tle": {"line1": "1 43539U 18057A   25337.45225574 -.00000025  00000+0  00000+0 0  9995", "line2": "2 43539  55.1728 164.7534 0092469 235.1642 306.8485  1.00259551 27165"}}, "geometry": {"type": "Point", "coordinates": [-23.378454804887827, 11.448296782786167]}}, {"type": "Feature", "properties": {"norad_id": 43564, "name": "GSAT0221 (GALILEO 25)", "group": "gnss", "lat": 43.45616884443009, "lon": 24.672343137569705, "alt_km": 23230.732245148658, "timestamp": "2025-12-04T09:47:37.764997+00:00", "meta": {"OBJECT_NAME": "GSAT0221 (GALILEO 25)", "OBJECT_ID": "2018-060A", "EPOCH": "2025-12-01T09:15:23.303232", "MEAN_MOTION": 1.70475711, "ECCENTRICITY": 0.00066191, "INCLINATION": 57.2301, "RA_OF_ASC_NODE": 347.1247, "ARG_OF_PERICENTER": 279.777, "MEAN_ANOMALY": 80.1905, "EPHEMERIS_TYPE": 0, "CLASSIFICATION_TYPE": "U", "NORAD_CAT_ID": 43564, "ELEMENT_SET_NO": 999, "REV_AT_EPOCH": 4579, "BSTAR": 0, "MEAN_MOTION_DOT": -5.9e-07, "MEAN_MOTION_DDOT": 0}, "tle": {"line1": "1 43564U 18060A   25335.38568638 -.00000059  00000+0  00000+0 0  9995", "line2": "2 43564  57.2301 347.1247 0006619 279.7770  80.1905  1.70475711 45792"}}, "geometry": {"type": "Point", "coordinates": [24.672343137569705, 43.45616884443009]}}, {"type": "Feature", "properties": {"norad_id": 43565, "name": "GSAT0222 (GALILEO 26)", "group": "gnss", "lat": -55.8077079841707, "lon": -84.4235333574659, "alt_km": 23210.75074194178, "timestamp": "2025-12-04T09:47:37.765019+00:00", "meta": {"OBJECT_NAME": "GSAT0222 (GALILEO 26)", "OBJECT_ID": "2018-060B", "EPOCH": "2025-12-02T18:40:34.092768", "MEAN_MOTION": 1.70475403, "ECCENTRICITY": 0.00061808, "INCLINATION": 57.2338, "RA_OF_ASC_NODE": 347.09, "ARG_OF_PERICENTER": 260.4743, "MEAN_ANOMALY": 99.4943, "EPHEMERIS_TYPE": 0, "CLASSIFICATION_TYPE": "U", "NORAD_CAT_ID": 43565, "ELEMENT_SET_NO": 999, "REV_AT_EPOCH": 4586, "BSTAR": 0, "MEAN_MOTION_DOT": -6.4e-07, "MEAN_MOTION_DDOT": 0}, "tle": {"line1": "1 43565U 18060B   25336.77817237 -.00000064  00000+0  00000+0 0  9998", "line2": "2 43565  57.2338 347.0900 0006180 260.4743  99.4943  1.70475403 45869"}}, "geometry": {"type": "Point", "coordinates": [-84.4235333574659, -55.8077079841707]}}]}